ACS3                    
1 59588U 24077B   24289.02597607  .00000518  00000+0  60986-3 0  9991
2 59588  97.4588 329.5355 0050369 178.0567 182.0791 13.70770122 23796
